COSMOS 1892             
1 18421U 87088A   21152.12537982  .00000858  00000-0  40951-4 0  9999
2 18421  82.4993 288.3402 0013409 297.6060  62.3812 15.17642913837646
SL-14 R/B               
1 18749U 88001B   21152.14842753  .00000070  00000-0  56773-5 0  9991
2 18749  82.5159  30.8630 0017591 225.9810 296.4681 14.83260749804654
COSMOS 1933             
1 18958U 88020A   21152.06062130  .00000664  00000-0  46023-4 0  9993
2 18958  82.5277 148.9225 0012856  50.4450 309.7910 15.03925392808649
SL-3 R/B                
1 19046U 88032B   21152.09409265  .00000197  00000-0  18727-4 0  9993
2 19046  97.3894 163.3839 0039477  98.8495 261.7204 15.02943281789616
SL-16 R/B               
1 19120U 88039B   21152.00490870 -.00000079  00000-0 -14523-4 0  9997
2 19120  71.0117 152.0134 0020378 137.1524 223.1194 14.19222361711373
COSMOS 1953             
1 19210U 88050A   21152.18128148  .00001090  00000-0  72145-4 0  9991
2 19210  82.5175  71.2614 0014032  13.8328 346.3281 15.06268991795284
SL-8 R/B                
1 19257U 88053B   21152.09304277  .00000011  00000-0  12480-4 0  9992
2 19257  74.0497  79.9079 0020866 329.7669  41.2155 14.37520712726388
COSMOS 1975             
1 19573U 88093A   21151.74551245  .00000333  00000-0  21251-4 0  9990
2 19573  82.5216  26.7613 0015236  58.6255 301.6460 15.05177550755894
SL-14 R/B               
1 19574U 88093B   21151.99524834  .00000081  00000-0  68766-5 0  9995
2 19574  82.5336 234.1095 0022465  36.2483 136.6347 14.83371681763620
SL-16 R/B               
1 19650U 88102B   21152.15576824  .00000044  00000-0  46800-4 0  9999
2 19650  70.9995 216.6557 0013222 151.3788 208.8064 14.15801436680518
INTERCOSMOS 24          
1 20261U 89080A   21151.96023091  .00000193  00000-0  53022-4 0  9995
2 20261  82.6022 154.7584 1202461   3.7115 357.1965 12.56206638447347
SL-14 R/B               
1 20262U 89080C   21152.12538697  .00000063  00000-0  15056-4 0  9999
2 20262  82.5950 210.5713 1236468 202.0646 152.2491 12.48969047442084
DELTA 2 R/B(1)          
1 20303U 89085B   21151.81821431  .00002440  00000-0  76648-4 0  9991
2 20303  35.6443 339.4272 0090009  36.8785 323.8091 15.29124409721924
DELTA 1 R/B             
1 20323U 89089B   21152.23549001  .00000032  00000-0  17525-4 0  9998
2 20323  97.1206 249.0982 0070880 212.8067 146.8719 14.48402224663888
ARIANE 40 R/B           
1 20443U 90005H   21152.15774952  .00000007  00000-0  16947-4 0  9996
2 20443  98.5292 218.5261 0010876  30.2896 329.8917 14.38127792642493
DELTA 2 R/B(1)          
1 20453U 90008B   21151.86773880  .00000724  00000-0  42591-4 0  9996
2 20453  35.6262   0.4298 0277755 335.1715  23.5852 14.86504692663051
COSMOS 2058             
1 20465U 90010A   21152.10827977  .00000240  00000-0  17861-4 0  9992
2 20465  82.4880 297.7970 0016916 104.5695 255.7406 14.98212593701633
SL-14 R/B               
1 20466U 90010B   21151.87473639  .00000083  00000-0  76019-5 0  9994
2 20466  82.5027 100.7013 0018947 273.3728  86.5318 14.81424773670316
SL-14 R/B               
1 20511U 90018B   21152.19445502  .00000074  00000-0  66732-5 0  9998
2 20511  82.5251  48.3419 0018783  56.9773 104.1001 14.80079434685799
HST                     
1 20580U 90037B   21151.80363367  .00000432  00000-0  15149-4 0  9993
2 20580  28.4687 175.2468 0002424 240.7203 281.1778 15.09650434508526
SL-16 R/B               
1 20625U 90046B   21151.89044922  .00000298  00000-0  17948-3 0  9993
2 20625  70.9994 356.8356 0012412  70.5001 289.7461 14.14668037601895
COSMOS 2084             
1 20663U 90055A   21151.86459448  .00000091  00000-0  26768-4 0  9997
2 20663  62.7947  84.7452 0067595   4.4672 355.7010 14.92249589675348
SL-6 R/B(2)             
1 20666U 90055D   21151.85922203  .00000035  00000-0  21333-4 0  9994
2 20666  62.7858   0.3157 0096248  33.0990 327.6076 14.92498169677292
SL-8 R/B                
1 20775U 90078B   21151.94927882  .00003375  00000-0  16282-3 0  9994
2 20775  82.9253 298.9423 0567341 193.8830 164.6200 14.35772562555711
SL-8 R/B                
1 21088U 91006B   21151.89936545  .00000059  00000-0  43894-4 0  9990
2 21088  82.9443  26.1604 0021398 233.8131 136.5257 13.77165341524170
OKEAN-3                 
1 21397U 91039A   21151.95552321  .00000135  00000-0  10390-4 0  9992
2 21397  82.5243 205.3907 0019386  83.6714 276.6710 14.93099939625334
COSMOS 2151             
1 21422U 91042A   21151.95552266  .00000225  00000-0  19464-4 0  9994
2 21422  82.4989 311.1159 0015055 143.7666 216.4577 14.92256579623938
SL-14 R/B               
1 21423U 91042B   21151.96534145  .00000075  00000-0  68725-5 0  9990
2 21423  82.4959  51.1756 0017157 192.6914 167.3869 14.79828904616240
ERS-1                   
1 21574U 91050A   21152.14280025  .00000033  00000-0  25835-4 0  9990
2 21574  98.6466 112.5466 0032489 332.4597  27.4867 14.37798700565202
ARIANE 40 R/B           
1 21610U 91050F   21152.12623250  .00000031  00000-0  23120-4 0  9993
2 21610  98.4235 223.1076 0002029 304.2594  71.3228 14.40949607568190
INTERCOSMOS 25          
1 21819U 91086A   21151.74865097 -.00000223  00000-0 -46143-4 0  9992
2 21819  82.5906 277.5717 1514467 249.8022  93.4230 12.05271083286246
SL-8 R/B                
1 21876U 92008B   21151.91295097  .00000083  00000-0  69905-4 0  9999
2 21876  82.9249 123.4327 0033954 323.1885  93.2898 13.75678349469782
SL-8 R/B                
1 21938U 92020B   21151.86714980 -.00000015  00000-0 -31825-4 0  9990
2 21938  82.9304   7.8991 0030341 120.1538 250.7496 13.75285763461568
COSMOS 2219             
1 22219U 92076A   21152.13475882  .00000328  00000-0  19839-3 0  9995
2 22219  71.0614  59.3129 0018651 337.2025  22.8267 14.13658478472411
SL-16 R/B               
1 22220U 92076B   21152.02990855 -.00000184  00000-0 -68518-4 0  9998
2 22220  71.0006 257.8007 0014707 236.6391 295.9410 14.16469070475365
COSMOS 2221             
1 22236U 92080A   21151.89649438  .00000182  00000-0  17155-4 0  9999
2 22236  82.5060 134.3875 0015117 242.6631 117.3048 14.88055752521083
SL-16 R/B               
1 22285U 92093B   21151.87294722 -.00000062  00000-0 -73123-5 0  9994
2 22285  71.0224  61.5575 0002101  83.8940 276.2422 14.15057637466596
COSMOS 2228             
1 22286U 92094A   21151.86465747  .00000218  00000-0  20790-4 0  9994
2 22286  82.5202  91.0711 0021372   8.2824 351.8742 14.88279605516269
SL-16 R/B               
1 22566U 93016B   21152.06097736 -.00000195  00000-0 -76186-4 0  9998
2 22566  71.0086 273.9826 0007964  96.1662 264.0368 14.14975927455651
COSMOS 2242             
1 22626U 93024A   21152.14583543  .00000236  00000-0  22878-4 0  9992
2 22626  82.5204 119.0786 0019134   8.1242 352.0281 14.88129429521016
SL-16 R/B               
1 22803U 93059B   21151.88983617 -.00000218  00000-0 -84423-4 0  9999
2 22803  70.9910  84.9599 0017999 338.1844  21.8511 14.16837492432656
ARIANE 40 R/B           
1 22830U 93061H   21152.09594325 -.00000013  00000-0  11912-4 0  9995
2 22830  98.7142 209.5876 0011283  25.9185 334.2561 14.31481988444957
COSMOS 2278             
1 23087U 94023A   21151.62983011 -.00000135  00000-0 -46529-4 0  9999
2 23087  71.0551 219.8938 0008571 186.7242 173.3766 14.13833925398408
SL-16 R/B               
1 23088U 94023B   21151.63940307 -.00000092  00000-0 -22918-4 0  9990
2 23088  70.9975 130.3001 0001499  32.1056 328.0157 14.14685655399550
SL-16 R/B               
1 23343U 94074B   21151.91620980  .00000023  00000-0  10474-4 0  9999
2 23343  97.9471 206.8020 0008284 105.2756  67.6086 14.76882064429846
SL-16 R/B               
1 23405U 94077B   21151.87227000 -.00000262  00000-0 -11013-3 0  9998
2 23405  70.9842  57.8618 0004832 280.7594  79.2984 14.15238145369644
ERS-2                   
1 23560U 95021A   21151.85278379  .00000912  00000-0  41471-4 0  9995
2 23560  98.5496 359.6871 0004686  71.3475 288.8267 15.23939398395166
ARIANE 40+ R/B          
1 23561U 95021B   21151.78642486  .00000029  00000-0  24518-4 0  9994
2 23561  98.6754 201.4272 0005859 306.3431 168.4052 14.38028092368632
SL-16 R/B               
1 23705U 95058B   21151.99578237  .00000164  00000-0  10881-3 0  9996
2 23705  71.0224 237.6578 0014570 257.3401 102.6093 14.15147718321581
SL-16 R/B               
1 24298U 96051B   21152.01113758 -.00000156  00000-0 -57957-4 0  9994
2 24298  70.8313 255.6228 0017232 202.9162 157.1191 14.12443046275835
ORBVIEW 2 (SEASTAR)     
1 24883U 97037A   21151.88805694  .00000041  00000-0  31045-4 0  9991
2 24883  98.6403 269.9909 0003091 137.3042 222.8383 14.33615445258632
SL-16 R/B               
1 25400U 98043G   21152.07866948 -.00000013  00000-0  12931-4 0  9999
2 25400  98.6397  88.1642 0010727  44.0845 316.1188 14.25476688190915
SL-16 R/B               
1 25407U 98045B   21151.72046851  .00000245  00000-0  14877-3 0  9998
2 25407  71.0121 245.6603 0007200 178.9473 181.1667 14.15839130180370
ISS (ZARYA)             
1 25544U 98067A   21152.11066515  .00000451  00000-0  16375-4 0  9992
2 25544  51.6453  62.2423 0003364  52.3737  88.5313 15.48937685286109
CZ-4B R/B               
1 25732U 99025C   21151.86274215 -.00000023  00000-0  10839-4 0  9990
2 25732  98.9030 188.2820 0036347 297.9184 235.6205 14.17693419141185
OKEAN-O                 
1 25860U 99039A   21151.79496557  .00000023  00000-0  10805-4 0  9996
2 25860  98.1835 182.3161 0001359 114.2131 245.9220 14.76736204176929
SL-16 R/B               
1 25861U 99039B   21151.97821969  .00000019  00000-0  10043-4 0  9995
2 25861  98.2043 167.0299 0016842 116.4709 303.7567 14.78642022179265
DELTA 2 R/B             
1 25876U 99041E   21152.04395249 -.00000134  00000-0  16452-4 0  9999
2 25876  51.7694  14.0835 0530284 280.8800  73.2911 14.04574160117634
HELIOS 1B               
1 25977U 99064A   21151.75826210  .00000021  00000-0  97388-5 0  9992
2 25977  98.3159 325.6199 0000689  24.7397 335.3848 14.82558070426722
